{
    "links": {
        "self": "http://www.neowsapp.com/rest/v1/neo/3746496?api_key=iIulBulltgU6a56xZRHN4H3l9WmuAYTsLGpBGhQ2"
    },
    "id": "3746496",
    "neo_reference_id": "3746496",
    "name": "(2016 ES155)",
    "designation": "2016 ES155",
    "nasa_jpl_url": "http://ssd.jpl.nasa.gov/sbdb.cgi?sstr=3746496",
    "absolute_magnitude_h": 24.3,
    "estimated_diameter": {
        "kilometers": {
            "estimated_diameter_min": 0.0366906138,
            "estimated_diameter_max": 0.0820427065
        },
        "meters": {
            "estimated_diameter_min": 36.6906137531,
            "estimated_diameter_max": 82.0427064882
        },
        "miles": {
            "estimated_diameter_min": 0.0227984834,
            "estimated_diameter_max": 0.0509789586
        },
        "feet": {
            "estimated_diameter_min": 120.3760332259,
            "estimated_diameter_max": 269.1689931548
        }
    },
    "is_potentially_hazardous_asteroid": false,
    "close_approach_data": [
        {
            "close_approach_date": "1951-04-02",
            "close_approach_date_full": "1951-Apr-02 16:28",
            "epoch_date_close_approach": -591694320000,
            "relative_velocity": {
                "kilometers_per_second": "13.0943690976",
                "kilometers_per_hour": "47139.7287514565",
                "miles_per_hour": "29290.7942344814"
            },
            "miss_distance": {
                "astronomical": "0.2981535767",
                "lunar": "115.9817413363",
                "kilometers": "44603140.007201629",
                "miles": "27715106.0339313202"
            },
            "orbiting_body": "Earth"
        },
        {
            "close_approach_date": "2014-10-10",
            "close_approach_date_full": "2014-Oct-10 22:13",
            "epoch_date_close_approach": 1412979180000,
            "relative_velocity": {
                "kilometers_per_second": "16.4257436749",
                "kilometers_per_hour": "59132.6772297872",
                "miles_per_hour": "36742.7460264753"
            },
            "miss_distance": {
                "astronomical": "0.1991410113",
                "lunar": "77.4658533957",
                "kilometers": "29791071.120125931",
                "miles": "18511313.2130466078"
            },
            "orbiting_body": "Earth"
        },
        {
            "close_approach_date": "2016-03-17",
            "close_approach_date_full": "2016-Mar-17 16:17",
            "epoch_date_close_approach": 1458231420000,
            "relative_velocity": {
                "kilometers_per_second": "21.4673992912",
                "kilometers_per_hour": "77282.6374484759",
                "miles_per_hour": "48020.4254745821"
            },
            "miss_distance": {
                "astronomical": "0.0147603412",
                "lunar": "5.7417727268",
                "kilometers": "2208115.603993244",
                "miles": "1372059.4130810072"
            },
            "orbiting_body": "Earth"
        },
        {
            "close_approach_date": "2018-02-17",
            "close_approach_date_full": "2018-Feb-17 10:49",
            "epoch_date_close_approach": 1518864540000,
            "relative_velocity": {
                "kilometers_per_second": "18.6251181009",
                "kilometers_per_hour": "67050.4251631237",
                "miles_per_hour": "41662.526679831"
            },
            "miss_distance": {
                "astronomical": "0.0923601557",
                "lunar": "35.9281005673",
                "kilometers": "13816882.565588359",
                "miles": "8585412.7153789942"
            },
            "orbiting_body": "Venus"
        }
    ],
    "orbital_data": {
        "orbit_id": "9",
        "orbit_determination_date": "2020-09-11 07:36:25",
        "first_observation_date": "2016-03-12",
        "last_observation_date": "2016-03-18",
        "data_arc_in_days": 6,
        "observations_used": 106,
        "orbit_uncertainty": "8",
        "minimum_orbit_intersection": ".0106568",
        "jupiter_tisserand_invariant": "4.424",
        "epoch_osculation": "2457461.5",
        "eccentricity": ".6544271221354296",
        "semi_major_axis": "1.429938985850182",
        "inclination": "8.078451418924008",
        "ascending_node_longitude": "352.5638344614862",
        "orbital_period": "624.5607491067408",
        "perihelion_distance": ".4941481305109926",
        "perihelion_argument": "290.2590289156865",
        "aphelion_distance": "2.365729841189371",
        "perihelion_time": "2457515.964684902846",
        "mean_anomaly": "328.6062779432309",
        "mean_motion": ".5764050983269109",
        "equinox": "J2000",
        "orbit_class": {
            "orbit_class_type": "APO",
            "orbit_class_description": "Near-Earth asteroid orbits which cross the Earth’s orbit similar to that of 1862 Apollo",
            "orbit_class_range": "a (semi-major axis) > 1.0 AU; q (perihelion) < 1.017 AU"
        }
    },
    "is_sentry_object": false
}